{
  "norad_id": 62480,
  "name": "STARLINK-32743",
  "history": [
    {
      "epoch": "2026-03-28T19:34:40.881216Z",
      "apogee_km": 484.68653724062915,
      "perigee_km": 481.30907502096306,
      "latitude_deg": 1.3586472974603185e-05,
      "longitude_deg": 147.9740993791811,
      "height_km": 483.4015104978531,
      "semi_major_axis_km": 6861.134806130795,
      "eccentricity": 0.00024613,
      "inclination_deg": 43.0009,
      "raan_deg": 267.8752,
      "arg_perigee_deg": 248.2302,
      "mean_anomaly_deg": 111.8288,
      "mean_motion_rev_day": 15.27597129
    },
    {
      "epoch": "2026-03-29T04:59:37.937472Z",
      "apogee_km": 483.113089536374,
      "perigee_km": 482.8880442241798,
      "latitude_deg": -5.21041844682993e-05,
      "longitude_deg": 4.13369977716998,
      "height_km": 482.725323148224,
      "semi_major_axis_km": 6861.137566880277,
      "eccentricity": 1.64e-05,
      "inclination_deg": 42.9975,
      "raan_deg": 265.6593,
      "arg_perigee_deg": 296.6857,
      "mean_anomaly_deg": 63.3977,
      "mean_motion_rev_day": 15.27596207
    },
    {
      "epoch": "2026-03-30T04:31:59.142144Z",
      "apogee_km": 483.53894648095957,
      "perigee_km": 482.5907283870265,
      "latitude_deg": 1.3752445181200046e-05,
      "longitude_deg": 4.540396275883461,
      "height_km": 482.653882254783,
      "semi_major_axis_km": 6861.201837433993,
      "eccentricity": 6.91e-05,
      "inclination_deg": 43.0003,
      "raan_deg": 260.121,
      "arg_perigee_deg": 293.2356,
      "mean_anomaly_deg": 66.8423,
      "mean_motion_rev_day": 15.27574743
    },
    {
      "epoch": "2026-03-30T04:31:59.143008Z",
      "apogee_km": 483.53922092903304,
      "perigee_km": 482.59045393895303,
      "latitude_deg": 1.6643795853062485e-05,
      "longitude_deg": 4.54039574945576,
      "height_km": 482.65377399688884,
      "semi_major_axis_km": 6861.201837433993,
      "eccentricity": 6.914e-05,
      "inclination_deg": 43.0003,
      "raan_deg": 260.121,
      "arg_perigee_deg": 293.2356,
      "mean_anomaly_deg": 66.8423,
      "mean_motion_rev_day": 15.27574743
    },
    {
      "epoch": "2026-03-30T20:13:32.763648Z",
      "apogee_km": 483.42722847474306,
      "perigee_km": 482.55051381092835,
      "latitude_deg": 3.8664468679539115e-05,
      "longitude_deg": 124.81135883479378,
      "height_km": 482.74742573404404,
      "semi_major_axis_km": 6861.125871142835,
      "eccentricity": 6.389e-05,
      "inclination_deg": 42.9995,
      "raan_deg": 256.4265,
      "arg_perigee_deg": 272.2771,
      "mean_anomaly_deg": 87.8008,
      "mean_motion_rev_day": 15.27600113
    },
    {
      "epoch": "2026-03-31T18:11:43.511136Z",
      "apogee_km": 484.2844942203392,
      "perigee_km": 481.6374826164065,
      "latitude_deg": -6.982647770531607e-06,
      "longitude_deg": 149.19576865047395,
      "height_km": 482.825321121495,
      "semi_major_axis_km": 6861.097988418373,
      "eccentricity": 0.0001929,
      "inclination_deg": 43.0031,
      "raan_deg": 251.258,
      "arg_perigee_deg": 266.236,
      "mean_anomaly_deg": 93.8271,
      "mean_motion_rev_day": 15.27609425
    },
    {
      "epoch": "2026-04-01T11:27:27.415296Z",
      "apogee_km": 483.7364541242905,
      "perigee_km": 482.2695423926625,
      "latitude_deg": -3.515862823443212e-05,
      "longitude_deg": -114.50842765384542,
      "height_km": 482.3074049353035,
      "semi_major_axis_km": 6861.139998258476,
      "eccentricity": 0.0001069,
      "inclination_deg": 42.9991,
      "raan_deg": 247.1957,
      "arg_perigee_deg": 50.1394,
      "mean_anomaly_deg": 309.9551,
      "mean_motion_rev_day": 15.27595395
    },
    {
      "epoch": "2026-04-02T18:50:32.933760Z",
      "apogee_km": 485.1698385132395,
      "perigee_km": 480.8610347830254,
      "latitude_deg": -4.445630852227221e-06,
      "longitude_deg": 126.04508203751669,
      "height_km": 483.032008659074,
      "semi_major_axis_km": 6861.152436648133,
      "eccentricity": 0.000314,
      "inclination_deg": 43.0019,
      "raan_deg": 239.8111,
      "arg_perigee_deg": 263.6449,
      "mean_anomaly_deg": 96.4045,
      "mean_motion_rev_day": 15.27591241
    },
    {
      "epoch": "2026-04-02T18:50:32.934624Z",
      "apogee_km": 485.1699757362894,
      "perigee_km": 480.86089755997637,
      "latitude_deg": -2.883092845592238e-06,
      "longitude_deg": 126.04508009390965,
      "height_km": 483.0320238462664,
      "semi_major_axis_km": 6861.152436648133,
      "eccentricity": 0.00031402,
      "inclination_deg": 43.0019,
      "raan_deg": 239.8111,
      "arg_perigee_deg": 263.6449,
      "mean_anomaly_deg": 96.4045,
      "mean_motion_rev_day": 15.27591241
    },
    {
      "epoch": "2026-04-03T18:22:55.054272Z",
      "apogee_km": 484.1656967227045,
      "perigee_km": 481.927578620096,
      "latitude_deg": -3.09238412564595e-05,
      "longitude_deg": 126.44715308638472,
      "height_km": 482.57195628285217,
      "semi_major_axis_km": 6861.1836376714,
      "eccentricity": 0.0001631,
      "inclination_deg": 43.0009,
      "raan_deg": 234.2721,
      "arg_perigee_deg": 282.997,
      "mean_anomaly_deg": 77.0699,
      "mean_motion_rev_day": 15.27580821
    },
    {
      "epoch": "2026-04-04T16:21:06.204384Z",
      "apogee_km": 483.98433525072323,
      "perigee_km": 481.9710097612224,
      "latitude_deg": 5.070604901172644e-06,
      "longitude_deg": 150.8253658622682,
      "height_km": 482.9827218867571,
      "semi_major_axis_km": 6861.1146725059725,
      "eccentricity": 0.00014672,
      "inclination_deg": 43.002,
      "raan_deg": 229.099,
      "arg_perigee_deg": 256.9015,
      "mean_anomaly_deg": 103.1673,
      "mean_motion_rev_day": 15.27603853
    },
    {
      "epoch": "2026-04-05T15:53:28.985856Z",
      "apogee_km": 484.0107230421918,
      "perigee_km": 482.0991949624131,
      "latitude_deg": -1.670381073862907e-05,
      "longitude_deg": 151.22747880790828,
      "height_km": 482.88065082409577,
      "semi_major_axis_km": 6861.191959002302,
      "eccentricity": 0.0001393,
      "inclination_deg": 43.0037,
      "raan_deg": 223.5628,
      "arg_perigee_deg": 267.0859,
      "mean_anomaly_deg": 92.9833,
      "mean_motion_rev_day": 15.27578042
    },
    {
      "epoch": "2026-04-06T01:18:25.564320Z",
      "apogee_km": 484.08163965763924,
      "perigee_km": 482.07500862394136,
      "latitude_deg": -2.394841963134148e-05,
      "longitude_deg": 7.390537015415038,
      "height_km": 483.052104221928,
      "semi_major_axis_km": 6861.2153241407905,
      "eccentricity": 0.00014623,
      "inclination_deg": 43.0018,
      "raan_deg": 221.3483,
      "arg_perigee_deg": 258.6838,
      "mean_anomaly_deg": 101.3849,
      "mean_motion_rev_day": 15.27570239
    },
    {
      "epoch": "2026-04-06T15:25:49.617696Z",
      "apogee_km": 484.00176664916944,
      "perigee_km": 481.9511170636688,
      "latitude_deg": 4.0877719218603667e-07,
      "longitude_deg": 151.63781383057466,
      "height_km": 482.8936635508023,
      "semi_major_axis_km": 6861.113441856419,
      "eccentricity": 0.00014944,
      "inclination_deg": 42.9995,
      "raan_deg": 218.0258,
      "arg_perigee_deg": 262.1222,
      "mean_anomaly_deg": 97.946,
      "mean_motion_rev_day": 15.27604264
    },
    {
      "epoch": "2026-04-08T14:30:30.661056Z",
      "apogee_km": 483.8323421494324,
      "perigee_km": 482.2334151209152,
      "latitude_deg": -1.8907990334030535e-05,
      "longitude_deg": 152.45424600931784,
      "height_km": 482.7615924528575,
      "semi_major_axis_km": 6861.1698786351735,
      "eccentricity": 0.00011652,
      "inclination_deg": 42.9983,
      "raan_deg": 206.9467,
      "arg_perigee_deg": 273.4139,
      "mean_anomaly_deg": 86.6579,
      "mean_motion_rev_day": 15.27585416
    },
    {
      "epoch": "2026-04-09T14:02:51.240192Z",
      "apogee_km": 483.9533285296138,
      "perigee_km": 482.02946812672235,
      "latitude_deg": 2.1444537869150013e-05,
      "longitude_deg": 152.86162529782973,
      "height_km": 482.8596853309604,
      "semi_major_axis_km": 6861.128398328168,
      "eccentricity": 0.0001402,
      "inclination_deg": 42.9996,
      "raan_deg": 201.4065,
      "arg_perigee_deg": 264.5327,
      "mean_anomaly_deg": 95.5365,
      "mean_motion_rev_day": 15.27599269
    },
    {
      "epoch": "2026-04-10T07:18:34.738272Z",
      "apogee_km": 483.42229404381123,
      "perigee_km": 482.6007401203751,
      "latitude_deg": 1.2364863744242273e-05,
      "longitude_deg": -110.83815686937436,
      "height_km": 483.1411428335766,
      "semi_major_axis_km": 6861.148517082092,
      "eccentricity": 5.987e-05,
      "inclination_deg": 43.0027,
      "raan_deg": 197.3469,
      "arg_perigee_deg": 210.5747,
      "mean_anomaly_deg": 149.507,
      "mean_motion_rev_day": 15.2759255
    },
    {
      "epoch": "2026-04-11T13:07:33.315168Z",
      "apogee_km": 483.3851946505638,
      "perigee_km": 482.68261075012833,
      "latitude_deg": -3.37440271809631e-05,
      "longitude_deg": 153.67641029863964,
      "height_km": 482.7627493612409,
      "semi_major_axis_km": 6861.170902700346,
      "eccentricity": 5.12e-05,
      "inclination_deg": 43.0025,
      "raan_deg": 190.3301,
      "arg_perigee_deg": 277.7464,
      "mean_anomaly_deg": 82.3329,
      "mean_motion_rev_day": 15.27585074
    },
    {
      "epoch": "2026-04-13T05:55:36.957792Z",
      "apogee_km": 483.8957175381229,
      "perigee_km": 482.19880944607576,
      "latitude_deg": 3.3683476368081675e-05,
      "longitude_deg": -109.61573448060216,
      "height_km": 482.6944184474537,
      "semi_major_axis_km": 6861.184263492099,
      "eccentricity": 0.00012366,
      "inclination_deg": 42.9992,
      "raan_deg": 180.7287,
      "arg_perigee_deg": 278.7673,
      "mean_anomaly_deg": 81.3039,
      "mean_motion_rev_day": 15.27580612
    }
  ]
}